COSMOS 1892             
1 18421U 87088A   21063.57241806  .00000894  00000-0  42918-4 0  9991
2 18421  82.5022  16.0444 0013344 239.6695 120.3219 15.17495433823992
SL-14 R/B               
1 18749U 88001B   21063.63120841  .00000094  00000-0  85811-5 0  9994
2 18749  82.5127 113.8296 0019362 156.5811 320.7629 14.83248313770431
COSMOS 1933             
1 18958U 88020A   21064.16685992  .00000159  00000-0  94521-5 0  9999
2 18958  82.5279 233.7997 0011051 351.9271   8.1775 15.03867399795439
SL-3 R/B                
1 19046U 88032B   21063.87573169 -.00000318  00000-0 -19031-4 0  9991
2 19046  97.3912  79.2021 0038609  40.8391 319.5717 15.02862471776071
SL-16 R/B               
1 19120U 88039B   21064.18387668 -.00000168  00000-0 -57093-4 0  9996
2 19120  71.0173 337.5873 0024275 267.5127  92.3218 14.19218826698910
COSMOS 1953             
1 19210U 88050A   21063.75900269  .00000157  00000-0  87078-5 0  9992
2 19210  82.5194 157.1322 0011621 312.4203  47.6041 15.06186559760844
SL-8 R/B                
1 19257U 88053B   21064.22901632  .00000139  00000-0  54941-4 0  9996
2 19257  74.0467 241.4752 0020104 158.6207  14.2120 14.37508953713753
COSMOS 1975             
1 19573U 88093A   21063.59122356  .00000469  00000-0  30900-4 0  9993
2 19573  82.5176 112.1895 0014152   4.0167 356.1170 15.05080514742638
SL-14 R/B               
1 19574U 88093B   21063.74219925  .00000088  00000-0  78167-5 0  9995
2 19574  82.5332 316.6515 0020768 327.3110  95.0449 14.83359525729451
SL-16 R/B               
1 19650U 88102B   21063.62823567  .00000086  00000-0  67882-4 0  9990
2 19650  71.0000  42.8114 0016586 276.7960  83.1275 14.15798621667700
INTERCOSMOS 24          
1 20261U 89080A   21064.10892496  .00000271  00000-0  77632-4 0  9997
2 20261  82.6049 211.5740 1202731 206.3010 147.1919 12.56177903436310
SL-14 R/B               
1 20262U 89080C   21063.61047133  .00000074  00000-0  14444-4 0  9996
2 20262  82.5885 267.2793 1237349  44.0056 325.3073 12.48959806431467
DELTA 2 R/B(1)          
1 20303U 89085B   21063.66246368  .00003108  00000-0  97585-4 0  9991
2 20303  35.6439 174.4871 0092220 331.2620  28.3047 15.28701117708422
DELTA 1 R/B             
1 20323U 89089B   21064.08496468  .00000075  00000-0  28333-4 0  9997
2 20323  97.1154 174.7441 0072945 130.4358 230.3232 14.48386844651128
ARIANE 40 R/B           
1 20443U 90005H   21063.72763469 -.00000004  00000-0  13197-4 0  9993
2 20443  98.5414 130.6610 0009267 288.9220  71.0962 14.38116647629528
DELTA 2 R/B(1)          
1 20453U 90008B   21063.87402023  .00001521  00000-0  85472-4 0  9998
2 20453  35.6252 159.9973 0278678 319.7146  38.3220 14.86315738649958
COSMOS 2058             
1 20465U 90010A   21064.14684390  .00000521  00000-0  41530-4 0  9990
2 20465  82.4910  22.4654 0016601  46.4372 313.8226 14.98151855688460
SL-14 R/B               
1 20466U 90010B   21063.72925222  .00000111  00000-0  11095-4 0  9994
2 20466  82.5059 183.1910 0020052 198.4803 161.5685 14.81413060657260
SL-14 R/B               
1 20511U 90018B   21063.68985529  .00000084  00000-0  80227-5 0  9997
2 20511  82.5233 130.7878 0017074 349.5622 125.7459 14.80068387651604
HST                     
1 20580U 90037B   21063.27490087  .00000673  00000-0  29864-4 0  9992
2 20580  28.4707  40.9814 0002693  15.8838 113.1305 15.09572189495182
SL-16 R/B               
1 20625U 90046B   21063.71613711  .00000304  00000-0  18235-3 0  9992
2 20625  70.9994 181.9121 0015468 213.4750 146.5396 14.14664940589425
COSMOS 2084             
1 20663U 90055A   21063.60971960  .00000220  00000-0  39054-4 0  9995
2 20663  62.7959  19.4951 0053950 349.5456  10.4511 14.92201005662172
SL-6 R/B(2)             
1 20666U 90055D   21063.75289712  .00000094  00000-0  26758-4 0  9997
2 20666  62.7850 294.8008 0084202  22.7560 337.7230 14.92447668664146
SL-8 R/B                
1 20775U 90078B   21063.57019175  .00002239  00000-0  10529-3 0  9998
2 20775  82.9296  11.9692 0570865 108.2659 258.1499 14.35322952543038
SL-8 R/B                
1 21088U 91006B   21063.57209271  .00000113  00000-0  98581-4 0  9990
2 21088  82.9388  91.8378 0023845 121.1272 349.6528 13.77151759512015
OKEAN-3                 
1 21397U 91039A   21063.89437681  .00000294  00000-0  25678-4 0  9999
2 21397  82.5200 289.1158 0018373  22.6055 337.5971 14.93048957591120
COSMOS 2151             
1 21422U 91042A   21063.91223328  .00000263  00000-0  23243-4 0  9998
2 21422  82.5008  34.9527 0015802  83.4993 276.8026 14.92221232589717
SL-14 R/B               
1 21423U 91042B   21063.65730932  .00000086  00000-0  82908-5 0  9991
2 21423  82.4946 133.7250 0018908 124.2245 236.0763 14.79818129582141
ERS-1                   
1 21574U 91050A   21064.11008584  .00000046  00000-0  30194-4 0  9995
2 21574  98.6350  24.0402 0032039 231.0517 128.7813 14.37784207552555
ARIANE 40 R/B           
1 21610U 91050F   21063.74195793  .00000024  00000-0  20926-4 0  9991
2 21610  98.4342 135.9800 0003242 177.2900 259.9134 14.40936007555186
INTERCOSMOS 25          
1 21819U 91086A   21063.43033466  .00000709  00000-0  13522-3 0  9998
2 21819  82.5807 330.5617 1517510  78.0078 298.6493 12.05153178275602
SL-8 R/B                
1 21876U 92008B   21063.69998469  .00000040  00000-0  26171-4 0  9990
2 21876  82.9299 188.9855 0034410 205.3008 269.9811 13.75667481457650
SL-8 R/B                
1 21938U 92020B   21063.56616931 -.00000072  00000-0 -90344-4 0  9990
2 21938  82.9263  73.4550 0029489  10.6485 105.7577 13.75289232449422
COSMOS 2219             
1 22219U 92076A   21063.68511593  .00000143  00000-0  10072-3 0  9991
2 22219  71.0566 244.0854 0016897 121.2760 239.0020 14.13648414459594
SL-16 R/B               
1 22220U 92076B   21063.54306149  .00000176  00000-0  11247-3 0  9998
2 22220  70.9990  84.0766 0012826 355.5663 172.0732 14.16468048462834
COSMOS 2221             
1 22236U 92080A   21063.67208008  .00000301  00000-0  30018-4 0  9997
2 22236  82.5077 217.7459 0016866 173.0992 187.0462 14.88018339507970
SL-16 R/B               
1 22285U 92093B   21063.72293154 -.00000236  00000-0 -97041-4 0  9995
2 22285  71.0197 246.4906 0006112 237.5057 122.5476 14.15056843454148
COSMOS 2228             
1 22286U 92094A   21063.72049721  .00000286  00000-0  28268-4 0  9994
2 22286  82.5231 174.2662 0019691 298.2842  61.6388 14.88238717503157
SL-16 R/B               
1 22566U 93016B   21063.55223333  .00000189  00000-0  12221-3 0  9997
2 22566  71.0067  99.7768 0012238 236.7332 123.2618 14.14975682443126
COSMOS 2242             
1 22626U 93024A   21064.12727086  .00000275  00000-0  27171-4 0  9998
2 22626  82.5232 202.1041 0017508 297.2052  62.7381 14.88089613507928
SL-16 R/B               
1 22803U 93059B   21063.99161988 -.00000175  00000-0 -63211-4 0  9996
2 22803  70.9868 270.2015 0015362 123.6752 236.5838 14.16831940420463
ARIANE 40 R/B           
1 22830U 93061H   21063.74521469  .00000057  00000-0  38344-4 0  9992
2 22830  98.7287 120.8607 0009828 279.2932  80.7139 14.31470066432068
COSMOS 2278             
1 23087U 94023A   21063.40298505  .00000306  00000-0  18639-3 0  9992
2 23087  71.0545  44.3057 0010607 297.8667  62.1381 14.13823358385933
SL-16 R/B               
1 23088U 94023B   21063.81983388 -.00000149  00000-0 -52719-4 0  9993
2 23088  71.0003 314.6307 0004723 225.5098 134.5638 14.14682335387134
SL-16 R/B               
1 23343U 94074B   21063.76018529  .00000032  00000-0  11750-4 0  9992
2 23343  97.9619 119.9115 0007703  41.4957  72.4024 14.76865794416830
SL-16 R/B               
1 23405U 94077B   21063.94571531  .00000141  00000-0  97292-4 0  9997
2 23405  70.9810 242.7423 0001074   6.5777 353.5359 14.15238885357462
ERS-2                   
1 23560U 95021A   21063.86168773  .00001369  00000-0  60775-4 0  9999
2 23560  98.5551 259.4272 0003730  24.0558 336.0849 15.23712811381768
ARIANE 40+ R/B          
1 23561U 95021B   21063.76709612  .00000035  00000-0  26607-4 0  9997
2 23561  98.6902 112.4794 0006765 193.1320 278.1060 14.38012090355986
SL-16 R/B               
1 23705U 95058B   21063.99280008 -.00000290  00000-0 -12495-3 0  9999
2 23705  71.0199  62.3030 0011516  19.1791 340.9763 14.15146823309135
SL-16 R/B               
1 24298U 96051B   21063.48683944 -.00000157  00000-0 -58734-4 0  9990
2 24298  70.8341  82.3180 0017094 317.9451  42.0356 14.12464185263077
ORBVIEW 2 (SEASTAR)     
1 24883U 97037A   21063.73818982  .00000048  00000-0  33373-4 0  9994
2 24883  98.6283 182.0422 0003285  70.5602 289.5937 14.33598670246001
SL-16 R/B               
1 25400U 98043G   21063.77716689 -.00000002  00000-0  17637-4 0  9999
2 25400  98.6324   1.2063 0008962 300.1847  59.8444 14.25471147178102
SL-16 R/B               
1 25407U 98045B   21063.47768540  .00000237  00000-0  14479-3 0  9997
2 25407  71.0105  71.1225 0009602 290.4638  69.5454 14.15835742167884
ISS (ZARYA)             
1 25544U 98067A   21064.21877449  .00002246  00000-0  48860-4 0  9999
2 25544  51.6450 136.9566 0003228  75.4854 319.0380 15.49042392272483
SL-8 R/B                
1 25723U 99022C   21064.16369629  .00132715  17852-4  29994-3 0  9998
2 25723  48.4063 355.8853 0004765 169.8475 190.2584 15.97229985219250
CZ-4B R/B               
1 25732U 99025C   21064.03716459 -.00000044  00000-0  45927-6 0  9994
2 25732  98.9168 100.1901 0037304 186.1287 203.6280 14.17688811128887
OKEAN-O                 
1 25860U 99039A   21064.04810175  .00000058  00000-0  15824-4 0  9997
2 25860  98.1952  93.3022 0001850  99.3075 260.8344 14.76715635164062
SL-16 R/B               
1 25861U 99039B   21063.60978230  .00000051  00000-0  14455-4 0  9998
2 25861  98.2097  76.9173 0016553  45.9792  65.8067 14.78623894166061
DELTA 2 R/B             
1 25876U 99041E   21063.52770547  .00000328  00000-0  97001-4 0  9994
2 25876  51.7658   3.5968 0531745  22.6690 339.6809 14.04527348105173
